OBJECT C                
1 57582U 23117C   25003.15096869  .00017901  00000+0  78878-3 0  9993
2 57582  97.4651  79.0200 0008706 323.3940  36.6700 15.21840108 77538
